[{"OBJECT_NAME":"STARLINK-5605","OBJECT_ID":"2023-014W","EPOCH":"2026-03-09T23:25:49.964736","MEAN_MOTION":14.98331267,"ECCENTRICITY":0.00033621,"INCLINATION":69.9996,"RA_OF_ASC_NODE":63.9281,"ARG_OF_PERICENTER":265.8295,"MEAN_ANOMALY":94.248,"EPHEMERIS_TYPE":0,"CLASSIFICATION_TYPE":"U","NORAD_CAT_ID":55411,"ELEMENT_SET_NO":999,"REV_AT_EPOCH":17209,"BSTAR":0.0001445441,"MEAN_MOTION_DOT":1.632e-5,"MEAN_MOTION_DDOT":0},{"OBJECT_NAME":"SL-8 DEB","OBJECT_ID":"1972-043D","EPOCH":"2026-03-09T22:05:55.512096","MEAN_MOTION":15.0117212,"ECCENTRICITY":0.00057803,"INCLINATION":74.0604,"RA_OF_ASC_NODE":30.4168,"ARG_OF_PERICENTER":131.677,"MEAN_ANOMALY":228.4914,"EPHEMERIS_TYPE":0,"CLASSIFICATION_TYPE":"U","NORAD_CAT_ID":6065,"ELEMENT_SET_NO":999,"REV_AT_EPOCH":84295,"BSTAR":0.0010977341,"MEAN_MOTION_DOT":0.00014073,"MEAN_MOTION_DDOT":0}]
